[
    {
        "Altitude(m)": 610399.5071875736,
        "Argument of Periapsis(deg)": 0.0,
        "Eccentricity": 0.0,
        "Inclination(deg)": 60.0,
        "Latitude(deg)": 52.11127521536249,
        "Longitude(deg)": -117.415632694679,
        "Mean Anomaly(deg)": -294.5455,
        "RAAN(deg)": 295.00000000000006,
        "Satellite Name": "Test1 1302",
        "Satellite Number": 1302,
        "Semi-Major Axis(m)": 6980739.136638005,
        "Time(s)": 0
    },
    {
        "Altitude(m)": 610481.6581087424,
        "Argument of Periapsis(deg)": 0.00010418945913296404,
        "Eccentricity": 0.0,
        "Inclination(deg)": 60.0,
        "Latitude(deg)": 52.47087682304347,
        "Longitude(deg)": -116.63349673444087,
        "Mean Anomaly(deg)": -293.9253938545382,
        "RAAN(deg)": 294.99957995086027,
        "Satellite Name": "Test1 1302",
        "Satellite Number": 1302,
        "Semi-Major Axis(m)": 6980739.136638005,
        "Time(s)": 10
    }
]